{
  "norad_id": 68358,
  "name": "CENTISPACE-1 OBJECT J",
  "history": [
    {
      "epoch": "2026-03-25T14:49:37.060320",
      "apogee_km": 653.5108111418449,
      "perigee_km": 634.0306347368669,
      "latitude_deg": -3.004568360853162,
      "longitude_deg": 67.10784479998983,
      "semi_major_axis_km": 7021.907722939355,
      "eccentricity": 0.0013871,
      "inclination_deg": 54.9877,
      "raan_deg": 16.6351,
      "arg_perigee_deg": 306.1411,
      "mean_anomaly_deg": 53.8304,
      "mean_motion_rev_day": 14.75435012
    }
  ]
}